{"type": "FeatureCollection", "features": [ {"type": "Feature", "properties": {"norad_id": 39634, "name": "SENTINEL-1A", "group": "resource", "lat": 69.97414366709414, "lon": -155.86237602695638, "alt_km": 688.1506992162385, "timestamp": "2025-12-21T18:54:58.150370+00:00", "meta": {"OBJECT_NAME": "SENTINEL-1A", "OBJECT_ID": "2014-016A", "EPOCH": "2025-12-21T15:07:48.928224", "MEAN_MOTION": 14.592006, "ECCENTRICITY": 0.00012668, "INCLINATION": 98.1794, "RA_OF_ASC_NODE": 0.7402, "ARG_OF_PERICENTER": 84.6815, "MEAN_ANOMALY": 275.4529, "EPHEMERIS_TYPE": 0, "CLASSIFICATION_TYPE": "U", "NORAD_CAT_ID": 39634, "ELEMENT_SET_NO": 999, "REV_AT_EPOCH": 62412, "BSTAR": -6.45568e-07, "MEAN_MOTION_DOT": -4.9e-07, "MEAN_MOTION_DDOT": 0}, "tle": {"line1": "1 39634U 14016A   25355.63042741 -.00000049  00000+0 -64557-6 0  9991", "line2": "2 39634  98.1794   0.7402 0001266  84.6815 275.4529 14.59200600624121"}}, "geometry": {"type": "Point", "coordinates": [-155.86237602695638, 69.97414366709414]}}, {"type": "Feature", "properties": {"norad_id": 39731, "name": "KAZEOSAT 1", "group": "resource", "lat": -64.28647194274005, "lon": -130.24914699923292, "alt_km": 759.6057586923898, "timestamp": "2025-12-21T18:54:58.150380+00:00", "meta": {"OBJECT_NAME": "KAZEOSAT 1", "OBJECT_ID": "2014-024A", "EPOCH": "2025-12-21T12:47:07.027008", "MEAN_MOTION": 14.4206771, "ECCENTRICITY": 0.00012005, "INCLINATION": 98.343, "RA_OF_ASC_NODE": 67.2432, "ARG_OF_PERICENTER": 97.1056, "MEAN_ANOMALY": 263.0271, "EPHEMERIS_TYPE": 0, "CLASSIFICATION_TYPE": "U", "NORAD_CAT_ID": 39731, "ELEMENT_SET_NO": 999, "REV_AT_EPOCH": 61295, "BSTAR": 0.00012400068, "MEAN_MOTION_DOT": 3.64e-06, "MEAN_MOTION_DDOT": 0}, "tle": {"line1": "1 39731U 14024A   25355.53272022  .00000364  00000+0  12400-3 0  9999", "line2": "2 39731  98.3430  67.2432 0001200  97.1056 263.0271 14.42067710612953"}}, "geometry": {"type": "Point", "coordinates": [-130.24914699923292, -64.28647194274005]}}, {"type": "Feature", "properties": {"norad_id": 39766, "name": "ALOS-2", "group": "resource", "lat": -81.14166083171011, "lon": -152.82274861834006, "alt_km": 639.3001142675521, "timestamp": "2025-12-21T18:54:58.150390+00:00", "meta": {"OBJECT_NAME": "ALOS-2", "OBJECT_ID": "2014-029A", "EPOCH": "2025-12-21T14:28:15.356928", "MEAN_MOTION": 14.79472363, "ECCENTRICITY": 0.00013911, "INCLINATION": 97.9232, "RA_OF_ASC_NODE": 90.3234, "ARG_OF_PERICENTER": 97.2593, "MEAN_ANOMALY": 262.8777, "EPHEMERIS_TYPE": 0, "CLASSIFICATION_TYPE": "U", "NORAD_CAT_ID": 39766, "ELEMENT_SET_NO": 999, "REV_AT_EPOCH": 62532, "BSTAR": 0.00020772925, "MEAN_MOTION_DOT": 1.5e-05, "MEAN_MOTION_DDOT": 0}, "tle": {"line1": "1 39766U 14029A   25355.60295552  .00001500  00000+0  20773-3 0  9998", "line2": "2 39766  97.9232  90.3234 0001391  97.2593 262.8777 14.79472363625328"}}, "geometry": {"type": "Point", "coordinates": [-152.82274861834006, -81.14166083171011]}}, {"type": "Feature", "properties": {"norad_id": 40010, "name": "KAZEOSAT 2", "group": "resource", "lat": 1.3677491649532927, "lon": -160.54658998812536, "alt_km": 621.7567128579849, "timestamp": "2025-12-21T18:54:58.150400+00:00", "meta": {"OBJECT_NAME": "KAZEOSAT 2", "OBJECT_ID": "2014-033A", "EPOCH": "2025-12-21T14:03:32.580000", "MEAN_MOTION": 14.8517982, "ECCENTRICITY": 0.00084531, "INCLINATION": 97.5495, "RA_OF_ASC_NODE": 199.443, "ARG_OF_PERICENTER": 176.0651, "MEAN_ANOMALY": 184.0633, "EPHEMERIS_TYPE": 0, "CLASSIFICATION_TYPE": "U", "NORAD_CAT_ID": 40010, "ELEMENT_SET_NO": 999, "REV_AT_EPOCH": 62259, "BSTAR": 5.3511153e-05, "MEAN_MOTION_DOT": 4.08e-06, "MEAN_MOTION_DDOT": 0}, "tle": {"line1": "1 40010U 14033A   25355.58579375  .00000408  00000+0  53511-4 0  9995", "line2": "2 40010  97.5495 199.4430 0008453 176.0651 184.0633 14.85179820622596"}}, "geometry": {"type": "Point", "coordinates": [-160.54658998812536, 1.3677491649532927]}}, {"type": "Feature", "properties": {"norad_id": 40011, "name": "HODOYOSHI-4", "group": "resource", "lat": 14.959111874626323, "lon": 6.253447274581712, "alt_km": 589.9919134656257, "timestamp": "2025-12-21T18:54:58.150410+00:00", "meta": {"OBJECT_NAME": "HODOYOSHI-4", "OBJECT_ID": "2014-033B", "EPOCH": "2025-12-21T13:20:04.076736", "MEAN_MOTION": 14.87511329, "ECCENTRICITY": 0.00239003, "INCLINATION": 97.5406, "RA_OF_ASC_NODE": 184.0042, "ARG_OF_PERICENTER": 170.9546, "MEAN_ANOMALY": 189.2106, "EPHEMERIS_TYPE": 0, "CLASSIFICATION_TYPE": "U", "NORAD_CAT_ID": 40011, "ELEMENT_SET_NO": 999, "REV_AT_EPOCH": 62239, "BSTAR": 0.00018602853, "MEAN_MOTION_DOT": 1.643e-05, "MEAN_MOTION_DDOT": 0}, "tle": {"line1": "1 40011U 14033B   25355.55560274  .00001643  00000+0  18603-3 0  9995", "line2": "2 40011  97.5406 184.0042 0023900 170.9546 189.2106 14.87511329622394"}}, "geometry": {"type": "Point", "coordinates": [6.253447274581712, 14.959111874626323]}}, {"type": "Feature", "properties": {"norad_id": 40013, "name": "DEIMOS-2", "group": "resource", "lat": 38.67596395362459, "lon": 57.43052630681095, "alt_km": 584.853466480301, "timestamp": "2025-12-21T18:54:58.150420+00:00", "meta": {"OBJECT_NAME": "DEIMOS-2", "OBJECT_ID": "2014-033D", "EPOCH": "2025-12-21T15:04:14.257920", "MEAN_MOTION": 14.93010817, "ECCENTRICITY": 0.00015153, "INCLINATION": 97.6068, "RA_OF_ASC_NODE": 231.1347, "ARG_OF_PERICENTER": 103.9853, "MEAN_ANOMALY": 256.1536, "EPHEMERIS_TYPE": 0, "CLASSIFICATION_TYPE": "U", "NORAD_CAT_ID": 40013, "ELEMENT_SET_NO": 999, "REV_AT_EPOCH": 61122, "BSTAR": 0.0001826504, "MEAN_MOTION_DOT": 1.845e-05, "MEAN_MOTION_DDOT": 0}, "tle": {"line1": "1 40013U 14033D   25355.62794280  .00001845  00000+0  18265-3 0  9999", "line2": "2 40013  97.6068 231.1347 0001515 103.9853 256.1536 14.93010817611222"}}, "geometry": {"type": "Point", "coordinates": [57.43052630681095, 38.67596395362459]}}, {"type": "Feature", "properties": {"norad_id": 40015, "name": "HODOYOSHI-3", "group": "resource", "lat": 3.2799415102727782, "lon": 160.79029636974605, "alt_km": 635.4640619035299, "timestamp": "2025-12-21T18:54:58.150429+00:00", "meta": {"OBJECT_NAME": "HODOYOSHI-3", "OBJECT_ID": "2014-033F", "EPOCH": "2025-12-21T10:48:52.181280", "MEAN_MOTION": 14.84833803, "ECCENTRICITY": 0.00323005, "INCLINATION": 97.6204, "RA_OF_ASC_NODE": 160.9071, "ARG_OF_PERICENTER": 218.2843, "MEAN_ANOMALY": 141.608, "EPHEMERIS_TYPE": 0, "CLASSIFICATION_TYPE": "U", "NORAD_CAT_ID": 40015, "ELEMENT_SET_NO": 999, "REV_AT_EPOCH": 62124, "BSTAR": 0.00015524065, "MEAN_MOTION_DOT": 1.278e-05, "MEAN_MOTION_DDOT": 0}, "tle": {"line1": "1 40015U 14033F   25355.45060395  .00001278  00000+0  15524-3 0  9990", "line2": "2 40015  97.6204 160.9071 0032300 218.2843 141.6080 14.84833803621247"}}, "geometry": {"type": "Point", "coordinates": [160.79029636974605, 3.2799415102727782]}}, {"type": "Feature", "properties": {"norad_id": 40053, "name": "SPOT 7", "group": "resource", "lat": 22.59962856008381, "lon": 54.26125227915318, "alt_km": 689.8869000899067, "timestamp": "2025-12-21T18:54:58.150439+00:00", "meta": {"OBJECT_NAME": "SPOT 7", "OBJECT_ID": "2014-034A", "EPOCH": "2025-12-21T13:52:47.989344", "MEAN_MOTION": 14.60744768, "ECCENTRICITY": 0.00015621, "INCLINATION": 98.0899, "RA_OF_ASC_NODE": 57.4505, "ARG_OF_PERICENTER": 84.4705, "MEAN_ANOMALY": 275.6674, "EPHEMERIS_TYPE": 0, "CLASSIFICATION_TYPE": "U", "NORAD_CAT_ID": 40053, "ELEMENT_SET_NO": 999, "REV_AT_EPOCH": 61120, "BSTAR": 0.00013696757, "MEAN_MOTION_DOT": 6.22e-06, "MEAN_MOTION_DDOT": 0}, "tle": {"line1": "1 40053U 14034A   25355.57833321  .00000622  00000+0  13697-3 0  9994", "line2": "2 40053  98.0899  57.4505 0001562  84.4705 275.6674 14.60744768611209"}}, "geometry": {"type": "Point", "coordinates": [54.26125227915318, 22.59962856008381]}}, {"type": "Feature", "properties": {"norad_id": 40072, "name": "SKYSAT-B", "group": "resource", "lat": 74.11740915225927, "lon": 151.10253721861173, "alt_km": 594.7514495115684, "timestamp": "2025-12-21T18:54:58.150449+00:00", "meta": {"OBJECT_NAME": "SKYSAT-B", "OBJECT_ID": "2014-037D", "EPOCH": "2025-12-21T08:45:54.318528", "MEAN_MOTION": 14.87355619, "ECCENTRICITY": 0.00066797, "INCLINATION": 98.3624, "RA_OF_ASC_NODE": 299.5272, "ARG_OF_PERICENTER": 125.9146, "MEAN_ANOMALY": 234.2689, "EPHEMERIS_TYPE": 0, "CLASSIFICATION_TYPE": "U", "NORAD_CAT_ID": 40072, "ELEMENT_SET_NO": 999, "REV_AT_EPOCH": 61952, "BSTAR": 0.00015309059, "MEAN_MOTION_DOT": 1.322e-05, "MEAN_MOTION_DDOT": 0}, "tle": {"line1": "1 40072U 14037D   25355.36521202  .00001322  00000+0  15309-3 0  9997", "line2": "2 40072  98.3624 299.5272 0006679 125.9146 234.2689 14.87355619619525"}}, "geometry": {"type": "Point", "coordinates": [151.10253721861173, 74.11740915225927]}}, {"type": "Feature", "properties": {"norad_id": 40115, "name": "WORLDVIEW-3 (WV-3)", "group": "resource", "lat": -75.18233044872089, "lon": 99.51340098186233, "alt_km": 623.0614759611308, "timestamp": "2025-12-21T18:54:58.150459+00:00", "meta": {"OBJECT_NAME": "WORLDVIEW-3 (WV-3)", "OBJECT_ID": "2014-048A", "EPOCH": "2025-12-21T11:10:36.966432", "MEAN_MOTION": 14.84666267, "ECCENTRICITY": 0.00018464, "INCLINATION": 97.8769, "RA_OF_ASC_NODE": 67.6385, "ARG_OF_PERICENTER": 134.9342, "MEAN_ANOMALY": 225.2022, "EPHEMERIS_TYPE": 0, "CLASSIFICATION_TYPE": "U", "NORAD_CAT_ID": 40115, "ELEMENT_SET_NO": 999, "REV_AT_EPOCH": 61553, "BSTAR": 0.00010610788, "MEAN_MOTION_DOT": 8.44e-06, "MEAN_MOTION_DDOT": 0}, "tle": {"line1": "1 40115U 14048A   25355.46570563  .00000844  00000+0  10611-3 0  9991", "line2": "2 40115  97.8769  67.6385 0001846 134.9342 225.2022 14.84666267615534"}}, "geometry": {"type": "Point", "coordinates": [99.51340098186233, -75.18233044872089]}}]}